[{"OBJECT_NAME":"ONEWEB-0701","OBJECT_ID":"2024-188P","EPOCH":"2026-03-01T00:50:41.019072","MEAN_MOTION":13.10375161,"ECCENTRICITY":0.000258,"INCLINATION":87.8772,"RA_OF_ASC_NODE":57.8012,"ARG_OF_PERICENTER":100.0391,"MEAN_ANOMALY":260.1027,"EPHEMERIS_TYPE":0,"CLASSIFICATION_TYPE":"U","NORAD_CAT_ID":61607,"ELEMENT_SET_NO":999,"REV_AT_EPOCH":6914,"BSTAR":-0.00015005,"MEAN_MOTION_DOT":-4.0e-7,"MEAN_MOTION_DDOT":0},{"OBJECT_NAME":"ONEWEB-0702","OBJECT_ID":"2024-188Q","EPOCH":"2026-02-28T23:35:57.655680","MEAN_MOTION":13.11418384,"ECCENTRICITY":0.0002845,"INCLINATION":87.886,"RA_OF_ASC_NODE":42.4881,"ARG_OF_PERICENTER":92.7752,"MEAN_ANOMALY":267.3702,"EPHEMERIS_TYPE":0,"CLASSIFICATION_TYPE":"U","NORAD_CAT_ID":61608,"ELEMENT_SET_NO":999,"REV_AT_EPOCH":7030,"BSTAR":-0.0010684,"MEAN_MOTION_DOT":-3.66e-6,"MEAN_MOTION_DDOT":0},{"OBJECT_NAME":"ONEWEB-0704","OBJECT_ID":"2024-188R","EPOCH":"2026-03-01T00:33:57.286080","MEAN_MOTION":13.10374684,"ECCENTRICITY":0.000283,"INCLINATION":87.8782,"RA_OF_ASC_NODE":57.7792,"ARG_OF_PERICENTER":92.3056,"MEAN_ANOMALY":267.8396,"EPHEMERIS_TYPE":0,"CLASSIFICATION_TYPE":"U","NORAD_CAT_ID":61609,"ELEMENT_SET_NO":999,"REV_AT_EPOCH":6912,"BSTAR":-0.0015874,"MEAN_MOTION_DOT":-5.41e-6,"MEAN_MOTION_DDOT":0},{"OBJECT_NAME":"ONEWEB-0705","OBJECT_ID":"2024-188S","EPOCH":"2026-03-01T00:41:07.305792","MEAN_MOTION":13.10374699,"ECCENTRICITY":0.0002774,"INCLINATION":87.8772,"RA_OF_ASC_NODE":57.7918,"ARG_OF_PERICENTER":70.8667,"MEAN_ANOMALY":289.2761,"EPHEMERIS_TYPE":0,"CLASSIFICATION_TYPE":"U","NORAD_CAT_ID":61610,"ELEMENT_SET_NO":999,"REV_AT_EPOCH":6129,"BSTAR":-0.0011284,"MEAN_MOTION_DOT":-3.81e-6,"MEAN_MOTION_DDOT":0},{"OBJECT_NAME":"ONEWEB-0706","OBJECT_ID":"2024-188T","EPOCH":"2026-03-01T00:19:35.959296","MEAN_MOTION":13.10371963,"ECCENTRICITY":0.0002479,"INCLINATION":87.8758,"RA_OF_ASC_NODE":57.8082,"ARG_OF_PERICENTER":86.6276,"MEAN_ANOMALY":273.5135,"EPHEMERIS_TYPE":0,"CLASSIFICATION_TYPE":"U","NORAD_CAT_ID":61611,"ELEMENT_SET_NO":999,"REV_AT_EPOCH":6921,"BSTAR":-0.0018007,"MEAN_MOTION_DOT":-6.16e-6,"MEAN_MOTION_DDOT":0},{"OBJECT_NAME":"ONEWEB-0707","OBJECT_ID":"2024-188U","EPOCH":"2026-03-01T02:19:06.754944","MEAN_MOTION":13.10373138,"ECCENTRICITY":0.0002451,"INCLINATION":87.8772,"RA_OF_ASC_NODE":57.7779,"ARG_OF_PERICENTER":88.1668,"MEAN_ANOMALY":271.974,"EPHEMERIS_TYPE":0,"CLASSIFICATION_TYPE":"U","NORAD_CAT_ID":61612,"ELEMENT_SET_NO":999,"REV_AT_EPOCH":6916,"BSTAR":-0.001715,"MEAN_MOTION_DOT":-5.86e-6,"MEAN_MOTION_DDOT":0},{"OBJECT_NAME":"ONEWEB-0708","OBJECT_ID":"2024-188V","EPOCH":"2026-03-01T00:55:28.196256","MEAN_MOTION":13.10376368,"ECCENTRICITY":0.0002085,"INCLINATION":87.8767,"RA_OF_ASC_NODE":57.8176,"ARG_OF_PERICENTER":71.7887,"MEAN_ANOMALY":288.3467,"EPHEMERIS_TYPE":0,"CLASSIFICATION_TYPE":"U","NORAD_CAT_ID":61613,"ELEMENT_SET_NO":999,"REV_AT_EPOCH":6913,"BSTAR":0.00026006,"MEAN_MOTION_DOT":1.03e-6,"MEAN_MOTION_DDOT":0}]
