ONEWEB-0701             
1 61607U 24188P   26060.03519698 -.00000040  00000+0 -15005-3 0  9997
2 61607  87.8772  57.8012 0002580 100.0391 260.1027 13.10375161 69149
ONEWEB-0702             
1 61608U 24188Q   26059.98330620 -.00000366  00000+0 -10684-2 0  9994
2 61608  87.8860  42.4881 0002845  92.7752 267.3702 13.11418384 70309
ONEWEB-0704             
1 61609U 24188R   26060.02357970 -.00000541  00000+0 -15874-2 0  9990
2 61609  87.8782  57.7792 0002830  92.3056 267.8396 13.10374684 69125
ONEWEB-0705             
1 61610U 24188S   26060.02855678 -.00000381  00000+0 -11284-2 0  9993
2 61610  87.8772  57.7918 0002774  70.8667 289.2761 13.10374699 61292
ONEWEB-0706             
1 61611U 24188T   26060.01361064 -.00000616  00000+0 -18007-2 0  9995
2 61611  87.8758  57.8082 0002479  86.6276 273.5135 13.10371963 69215
ONEWEB-0707             
1 61612U 24188U   26060.09660596 -.00000586  00000+0 -17150-2 0  9990
2 61612  87.8772  57.7779 0002451  88.1668 271.9740 13.10373138 69160
ONEWEB-0708             
1 61613U 24188V   26060.03852079  .00000103  00000+0  26006-3 0  9998
2 61613  87.8767  57.8176 0002085  71.7887 288.3467 13.10376368 69134
